STARLINK-33789          
1 63657U 25083Z   26012.55734576  .00029134  00000+0  10645-2 0  9994
2 63657  43.0004 322.0826 0001028 275.1235  84.9499 15.27564913 41516
STARLINK-33822          
1 63658U 25083AA  26012.90610415  .00047942  00000+0  17368-2 0  9995
2 63658  43.0048 320.4017 0001969 274.6729  85.3898 15.27646717 41561
STARLINK-33771          
1 63659U 25083AB  26012.55687489  .00024750  00000+0  90638-3 0  9996
2 63659  43.0001 325.6162 0000970 284.9263  75.1481 15.27563216 41474
STARLINK-33810          
1 63660U 25083AC  26012.87529307  .00027277  00000+0  99777-3 0  9997
2 63660  43.0011 320.1679 0001182 271.0943  88.9773 15.27557693 41566
STARLINK-33823          
1 63661U 25083AD  26012.57557244 -.00409522  00000+0 -16113-1 0  9996
2 63661  43.0033 322.2251 0003816 191.8332 168.2430 15.26740609 41514
STARLINK-11651 [DTC]    
1 63664U 25085A   26012.72285051  .00240903  00000+0  18233-2 0  9992
2 63664  42.9993 255.4141 0003433 285.6399  74.4089 15.70886150 41457
STARLINK-11672 [DTC]    
1 63665U 25085B   26012.71753050  .00187413  00000+0  14241-2 0  9992
2 63665  42.9973 255.3710 0001124 215.5893 144.4900 15.70960516 42059
STARLINK-11664 [DTC]    
1 63666U 25085C   26012.96760128  .00144090  00000+0  11049-2 0  9991
2 63666  43.0004 254.6987 0001875 270.4829  89.5823 15.70886904 41484
STARLINK-11666 [DTC]    
1 63667U 25085D   26012.96668830  .00216272  00000+0  16368-2 0  9990
2 63667  42.9987 254.6911 0001496 232.0766 127.9967 15.70966282 41386
STARLINK-11663 [DTC]    
1 63668U 25085E   26012.96137891  .00125933  00000+0  96773-3 0  9991
2 63668  42.9979 254.6477 0001123 201.1518 158.9304 15.70898915 41481
STARLINK-11595 [DTC]    
1 63669U 25085F   26012.06589640  .00119733  00000+0  92345-3 0  9998
2 63669  42.9988 259.9705 0002392 239.3838 120.6794 15.70832529 41984
STARLINK-11599 [DTC]    
1 63670U 25085G   26012.95076055  .00132621  00000+0  10187-2 0  9993
2 63670  43.0004 254.5619 0001717 255.5778 104.4899 15.70883908 41472
STARLINK-11603 [DTC]    
1 63671U 25085H   26012.94545009  .00132499  00000+0  10176-2 0  9994
2 63671  42.9978 254.5185 0000629 299.2974  60.7831 15.70888876 41472
STARLINK-11644 [DTC]    
1 63672U 25085J   26012.94014240  .00154448  00000+0  11822-2 0  9990
2 63672  42.9995 254.4759 0001571 274.2344  85.8344 15.70893920 41472
STARLINK-11634 [DTC]    
1 63673U 25085K   26012.93483238  .00149740  00000+0  11473-2 0  9998
2 63673  43.0003 254.4326 0001727 249.4015 110.6668 15.70886032 41479
STARLINK-11656 [DTC]    
1 63674U 25085L   26012.73877912  .00218031  00000+0  16507-2 0  9996
2 63674  42.9992 255.5396 0001514 250.3755 109.6949 15.70951749 41445
