[{"OBJECT_NAME":"STARLINK-33789","OBJECT_ID":"2025-083Z","EPOCH":"2026-01-12T13:22:34.673664","MEAN_MOTION":15.27564913,"ECCENTRICITY":0.00010285,"INCLINATION":43.0004,"RA_OF_ASC_NODE":322.0826,"ARG_OF_PERICENTER":275.1235,"MEAN_ANOMALY":84.9499,"EPHEMERIS_TYPE":0,"CLASSIFICATION_TYPE":"U","NORAD_CAT_ID":63657,"ELEMENT_SET_NO":999,"REV_AT_EPOCH":4151,"BSTAR":0.0010645433,"MEAN_MOTION_DOT":0.00029134,"MEAN_MOTION_DDOT":0},{"OBJECT_NAME":"STARLINK-33822","OBJECT_ID":"2025-083AA","EPOCH":"2026-01-12T21:44:47.398560","MEAN_MOTION":15.27646717,"ECCENTRICITY":0.00019697,"INCLINATION":43.0048,"RA_OF_ASC_NODE":320.4017,"ARG_OF_PERICENTER":274.6729,"MEAN_ANOMALY":85.3898,"EPHEMERIS_TYPE":0,"CLASSIFICATION_TYPE":"U","NORAD_CAT_ID":63658,"ELEMENT_SET_NO":999,"REV_AT_EPOCH":4156,"BSTAR":0.0017368471,"MEAN_MOTION_DOT":0.00047942,"MEAN_MOTION_DDOT":0},{"OBJECT_NAME":"STARLINK-33771","OBJECT_ID":"2025-083AB","EPOCH":"2026-01-12T13:21:53.990496","MEAN_MOTION":15.27563216,"ECCENTRICITY":9.705e-5,"INCLINATION":43.0001,"RA_OF_ASC_NODE":325.6162,"ARG_OF_PERICENTER":284.9263,"MEAN_ANOMALY":75.1481,"EPHEMERIS_TYPE":0,"CLASSIFICATION_TYPE":"U","NORAD_CAT_ID":63659,"ELEMENT_SET_NO":999,"REV_AT_EPOCH":4147,"BSTAR":0.00090637706,"MEAN_MOTION_DOT":0.0002475,"MEAN_MOTION_DDOT":0},{"OBJECT_NAME":"STARLINK-33810","OBJECT_ID":"2025-083AC","EPOCH":"2026-01-12T21:00:25.321248","MEAN_MOTION":15.27557693,"ECCENTRICITY":0.00011827,"INCLINATION":43.0011,"RA_OF_ASC_NODE":320.1679,"ARG_OF_PERICENTER":271.0943,"MEAN_ANOMALY":88.9773,"EPHEMERIS_TYPE":0,"CLASSIFICATION_TYPE":"U","NORAD_CAT_ID":63660,"ELEMENT_SET_NO":999,"REV_AT_EPOCH":4156,"BSTAR":0.00099777354,"MEAN_MOTION_DOT":0.00027277,"MEAN_MOTION_DDOT":0},{"OBJECT_NAME":"STARLINK-33823","OBJECT_ID":"2025-083AD","EPOCH":"2026-01-12T13:48:49.458816","MEAN_MOTION":15.26740609,"ECCENTRICITY":0.00038169,"INCLINATION":43.0033,"RA_OF_ASC_NODE":322.2251,"ARG_OF_PERICENTER":191.8332,"MEAN_ANOMALY":168.243,"EPHEMERIS_TYPE":0,"CLASSIFICATION_TYPE":"U","NORAD_CAT_ID":63661,"ELEMENT_SET_NO":999,"REV_AT_EPOCH":4151,"BSTAR":-0.016112813,"MEAN_MOTION_DOT":-0.00409522,"MEAN_MOTION_DDOT":0},{"OBJECT_NAME":"STARLINK-11651 [DTC]","OBJECT_ID":"2025-085A","EPOCH":"2026-01-12T17:20:54.284064","MEAN_MOTION":15.7088615,"ECCENTRICITY":0.00034331,"INCLINATION":42.9993,"RA_OF_ASC_NODE":255.4141,"ARG_OF_PERICENTER":285.6399,"MEAN_ANOMALY":74.4089,"EPHEMERIS_TYPE":0,"CLASSIFICATION_TYPE":"U","NORAD_CAT_ID":63664,"ELEMENT_SET_NO":999,"REV_AT_EPOCH":4145,"BSTAR":0.0018232596,"MEAN_MOTION_DOT":0.00240903,"MEAN_MOTION_DDOT":0},{"OBJECT_NAME":"STARLINK-11672 [DTC]","OBJECT_ID":"2025-085B","EPOCH":"2026-01-12T17:13:14.635200","MEAN_MOTION":15.70960516,"ECCENTRICITY":0.00011241,"INCLINATION":42.9973,"RA_OF_ASC_NODE":255.371,"ARG_OF_PERICENTER":215.5893,"MEAN_ANOMALY":144.49,"EPHEMERIS_TYPE":0,"CLASSIFICATION_TYPE":"U","NORAD_CAT_ID":63665,"ELEMENT_SET_NO":999,"REV_AT_EPOCH":4205,"BSTAR":0.0014241414,"MEAN_MOTION_DOT":0.00187413,"MEAN_MOTION_DDOT":0},{"OBJECT_NAME":"STARLINK-11664 [DTC]","OBJECT_ID":"2025-085C","EPOCH":"2026-01-12T23:13:20.750592","MEAN_MOTION":15.70886904,"ECCENTRICITY":0.00018751,"INCLINATION":43.0004,"RA_OF_ASC_NODE":254.6987,"ARG_OF_PERICENTER":270.4829,"MEAN_ANOMALY":89.5823,"EPHEMERIS_TYPE":0,"CLASSIFICATION_TYPE":"U","NORAD_CAT_ID":63666,"ELEMENT_SET_NO":999,"REV_AT_EPOCH":4148,"BSTAR":0.0011048628,"MEAN_MOTION_DOT":0.0014409,"MEAN_MOTION_DDOT":0},{"OBJECT_NAME":"STARLINK-11666 [DTC]","OBJECT_ID":"2025-085D","EPOCH":"2026-01-12T23:12:01.869120","MEAN_MOTION":15.70966282,"ECCENTRICITY":0.00014967,"INCLINATION":42.9987,"RA_OF_ASC_NODE":254.6911,"ARG_OF_PERICENTER":232.0766,"MEAN_ANOMALY":127.9967,"EPHEMERIS_TYPE":0,"CLASSIFICATION_TYPE":"U","NORAD_CAT_ID":63667,"ELEMENT_SET_NO":999,"REV_AT_EPOCH":4138,"BSTAR":0.0016367718,"MEAN_MOTION_DOT":0.00216272,"MEAN_MOTION_DDOT":0},{"OBJECT_NAME":"STARLINK-11663 [DTC]","OBJECT_ID":"2025-085E","EPOCH":"2026-01-12T23:04:23.137824","MEAN_MOTION":15.70898915,"ECCENTRICITY":0.00011231,"INCLINATION":42.9979,"RA_OF_ASC_NODE":254.6477,"ARG_OF_PERICENTER":201.1518,"MEAN_ANOMALY":158.9304,"EPHEMERIS_TYPE":0,"CLASSIFICATION_TYPE":"U","NORAD_CAT_ID":63668,"ELEMENT_SET_NO":999,"REV_AT_EPOCH":4148,"BSTAR":0.000967733,"MEAN_MOTION_DOT":0.00125933,"MEAN_MOTION_DDOT":0},{"OBJECT_NAME":"STARLINK-11595 [DTC]","OBJECT_ID":"2025-085F","EPOCH":"2026-01-12T01:34:53.448960","MEAN_MOTION":15.70832529,"ECCENTRICITY":0.00023925,"INCLINATION":42.9988,"RA_OF_ASC_NODE":259.9705,"ARG_OF_PERICENTER":239.3838,"MEAN_ANOMALY":120.6794,"EPHEMERIS_TYPE":0,"CLASSIFICATION_TYPE":"U","NORAD_CAT_ID":63669,"ELEMENT_SET_NO":999,"REV_AT_EPOCH":4198,"BSTAR":0.00092344657,"MEAN_MOTION_DOT":0.00119733,"MEAN_MOTION_DDOT":0},{"OBJECT_NAME":"STARLINK-11599 [DTC]","OBJECT_ID":"2025-085G","EPOCH":"2026-01-12T22:49:05.711520","MEAN_MOTION":15.70883908,"ECCENTRICITY":0.00017178,"INCLINATION":43.0004,"RA_OF_ASC_NODE":254.5619,"ARG_OF_PERICENTER":255.5778,"MEAN_ANOMALY":104.4899,"EPHEMERIS_TYPE":0,"CLASSIFICATION_TYPE":"U","NORAD_CAT_ID":63670,"ELEMENT_SET_NO":999,"REV_AT_EPOCH":4147,"BSTAR":0.0010187394,"MEAN_MOTION_DOT":0.00132621,"MEAN_MOTION_DDOT":0},{"OBJECT_NAME":"STARLINK-11603 [DTC]","OBJECT_ID":"2025-085H","EPOCH":"2026-01-12T22:41:26.887776","MEAN_MOTION":15.70888876,"ECCENTRICITY":6.29e-5,"INCLINATION":42.9978,"RA_OF_ASC_NODE":254.5185,"ARG_OF_PERICENTER":299.2974,"MEAN_ANOMALY":60.7831,"EPHEMERIS_TYPE":0,"CLASSIFICATION_TYPE":"U","NORAD_CAT_ID":63671,"ELEMENT_SET_NO":999,"REV_AT_EPOCH":4147,"BSTAR":0.0010176259,"MEAN_MOTION_DOT":0.00132499,"MEAN_MOTION_DDOT":0},{"OBJECT_NAME":"STARLINK-11644 [DTC]","OBJECT_ID":"2025-085J","EPOCH":"2026-01-12T22:33:48.303360","MEAN_MOTION":15.7089392,"ECCENTRICITY":0.00015717,"INCLINATION":42.9995,"RA_OF_ASC_NODE":254.4759,"ARG_OF_PERICENTER":274.2344,"MEAN_ANOMALY":85.8344,"EPHEMERIS_TYPE":0,"CLASSIFICATION_TYPE":"U","NORAD_CAT_ID":63672,"ELEMENT_SET_NO":999,"REV_AT_EPOCH":4147,"BSTAR":0.0011822306,"MEAN_MOTION_DOT":0.00154448,"MEAN_MOTION_DDOT":0},{"OBJECT_NAME":"STARLINK-11634 [DTC]","OBJECT_ID":"2025-085K","EPOCH":"2026-01-12T22:26:09.517632","MEAN_MOTION":15.70886032,"ECCENTRICITY":0.00017277,"INCLINATION":43.0003,"RA_OF_ASC_NODE":254.4326,"ARG_OF_PERICENTER":249.4015,"MEAN_ANOMALY":110.6668,"EPHEMERIS_TYPE":0,"CLASSIFICATION_TYPE":"U","NORAD_CAT_ID":63673,"ELEMENT_SET_NO":999,"REV_AT_EPOCH":4147,"BSTAR":0.0011473206,"MEAN_MOTION_DOT":0.0014974,"MEAN_MOTION_DDOT":0},{"OBJECT_NAME":"STARLINK-11656 [DTC]","OBJECT_ID":"2025-085L","EPOCH":"2026-01-12T17:43:50.515968","MEAN_MOTION":15.70951749,"ECCENTRICITY":0.00015142,"INCLINATION":42.9992,"RA_OF_ASC_NODE":255.5396,"ARG_OF_PERICENTER":250.3755,"MEAN_ANOMALY":109.6949,"EPHEMERIS_TYPE":0,"CLASSIFICATION_TYPE":"U","NORAD_CAT_ID":63674,"ELEMENT_SET_NO":999,"REV_AT_EPOCH":4144,"BSTAR":0.0016507142,"MEAN_MOTION_DOT":0.00218031,"MEAN_MOTION_DDOT":0}]
